[
    {
        "Altitude(m)": 622205.872609919,
        "Argument of Periapsis(deg)": 0.0,
        "Eccentricity": 0.0,
        "Inclination(deg)": 60.0,
        "Latitude(deg)": -52.162449544036164,
        "Longitude(deg)": -2.299455719504118,
        "Mean Anomaly(deg)": -114.5455,
        "RAAN(deg)": 229.99999999999997,
        "Satellite Name": "Test1 1027",
        "Satellite Number": 1027,
        "Semi-Major Axis(m)": 6980739.136638005,
        "Time(s)": 0
    },
    {
        "Altitude(m)": 622344.7785584904,
        "Argument of Periapsis(deg)": 0.00010418945913296404,
        "Eccentricity": 0.0,
        "Inclination(deg)": 60.0,
        "Latitude(deg)": -52.52002754217474,
        "Longitude(deg)": -1.5182411721752715,
        "Mean Anomaly(deg)": -113.92539385453817,
        "RAAN(deg)": 229.99957995086024,
        "Satellite Name": "Test1 1027",
        "Satellite Number": 1027,
        "Semi-Major Axis(m)": 6980739.136638005,
        "Time(s)": 10
    },
    {
        "Altitude(m)": 622480.8408476718,
        "Argument of Periapsis(deg)": 0.0002083789182659281,
        "Eccentricity": 0.0,
        "Inclination(deg)": 60.0,
        "Latitude(deg)": -52.871768900570416,
        "Longitude(deg)": -0.7236944957193021,
        "Mean Anomaly(deg)": -113.30528770907632,
        "RAAN(deg)": 229.99915990172047,
        "Satellite Name": "Test1 1027",
        "Satellite Number": 1027,
        "Semi-Major Axis(m)": 6980739.136638005,
        "Time(s)": 20
    },
    {
        "Altitude(m)": 622614.0062463871,
        "Argument of Periapsis(deg)": 0.00031256837739889213,
        "Eccentricity": 0.0,
        "Inclination(deg)": 60.0,
        "Latitude(deg)": -53.21750575790445,
        "Longitude(deg)": 0.08434527405299967,
        "Mean Anomaly(deg)": -112.68518156361452,
        "RAAN(deg)": 229.99873985258077,
        "Satellite Name": "Test1 1027",
        "Satellite Number": 1027,
        "Semi-Major Axis(m)": 6980739.136638005,
        "Time(s)": 30
    },
    {
        "Altitude(m)": 622744.2226337927,
        "Argument of Periapsis(deg)": 0.0004167578365318562,
        "Eccentricity": 0.0,
        "Inclination(deg)": 60.0,
        "Latitude(deg)": -53.55706684601232,
        "Longitude(deg)": 0.9060274778331726,
        "Mean Anomaly(deg)": -112.06507541815265,
        "RAAN(deg)": 229.998319803441,
        "Satellite Name": "Test1 1027",
        "Satellite Number": 1027,
        "Semi-Major Axis(m)": 6980739.136638005,
        "Time(s)": 40
    },
    {
        "Altitude(m)": 622871.43902152,
        "Argument of Periapsis(deg)": 0.0005209472956648203,
        "Eccentricity": 0.0,
        "Inclination(deg)": 60.0,
        "Latitude(deg)": -53.890277612650344,
        "Longitude(deg)": 1.7414874363076787,
        "Mean Anomaly(deg)": -111.44496927269081,
        "RAAN(deg)": 229.99789975430127,
        "Satellite Name": "Test1 1027",
        "Satellite Number": 1027,
        "Semi-Major Axis(m)": 6980739.136638005,
        "Time(s)": 50
    },
    {
        "Altitude(m)": 622995.6055754283,
        "Argument of Periapsis(deg)": 0.0006251367547977843,
        "Eccentricity": 0.0,
        "Inclination(deg)": 60.0,
        "Latitude(deg)": -54.21696036824616,
        "Longitude(deg)": 2.5908455029216904,
        "Mean Anomaly(deg)": -110.82486312722907,
        "RAAN(deg)": 229.9974797051615,
        "Satellite Name": "Test1 1027",
        "Satellite Number": 1027,
        "Semi-Major Axis(m)": 6980739.136638005,
        "Time(s)": 60
    },
    {
        "Altitude(m)": 623116.6736368366,
        "Argument of Periapsis(deg)": 0.0007293262139307483,
        "Eccentricity": 0.0,
        "Inclination(deg)": 60.0,
        "Latitude(deg)": -54.53693445825026,
        "Longitude(deg)": 3.454206057399859,
        "Mean Anomaly(deg)": -110.20475698176716,
        "RAAN(deg)": 229.9970596560218,
        "Satellite Name": "Test1 1027",
        "Satellite Number": 1027,
        "Semi-Major Axis(m)": 6980739.136638005,
        "Time(s)": 70
    },
    {
        "Altitude(m)": 623234.5957432294,
        "Argument of Periapsis(deg)": 0.0008335156730637124,
        "Eccentricity": 0.0,
        "Inclination(deg)": 60.0,
        "Latitude(deg)": -54.850016462664705,
        "Longitude(deg)": 4.331654932796324,
        "Mean Anomaly(deg)": -109.58465083630539,
        "RAAN(deg)": 229.99663960688204,
        "Satellite Name": "Test1 1027",
        "Satellite Number": 1027,
        "Semi-Major Axis(m)": 6980739.136638005,
        "Time(s)": 80
    },
    {
        "Altitude(m)": 623349.325648491,
        "Argument of Periapsis(deg)": 0.0009377051321966765,
        "Eccentricity": 0.0,
        "Inclination(deg)": 60.0,
        "Latitude(deg)": -55.15602042425088,
        "Longitude(deg)": 5.223258308874531,
        "Mean Anomaly(deg)": -108.96454469084354,
        "RAAN(deg)": 229.9962195577423,
        "Satellite Name": "Test1 1027",
        "Satellite Number": 1027,
        "Semi-Major Axis(m)": 6980739.136638005,
        "Time(s)": 90
    },
    {
        "Altitude(m)": 623460.8183425283,
        "Argument of Periapsis(deg)": 0.0010418945913296407,
        "Eccentricity": 0.0,
        "Inclination(deg)": 60.0,
        "Latitude(deg)": -55.454758106822716,
        "Longitude(deg)": 6.129061567494063,
        "Mean Anomaly(deg)": -108.3444385453817,
        "RAAN(deg)": 229.99579950860254,
        "Satellite Name": "Test1 1027",
        "Satellite Number": 1027,
        "Semi-Major Axis(m)": 6980739.136638005,
        "Time(s)": 100
    },
    {
        "Altitude(m)": 623569.0300704521,
        "Argument of Periapsis(deg)": 0.0011460840504626045,
        "Eccentricity": 0.0,
        "Inclination(deg)": 60.0,
        "Latitude(deg)": -55.74603928490528,
        "Longitude(deg)": 7.049086607291798,
        "Mean Anomaly(deg)": -107.7243323999199,
        "RAAN(deg)": 229.99537945946284,
        "Satellite Name": "Test1 1027",
        "Satellite Number": 1027,
        "Semi-Major Axis(m)": 6980739.136638005,
        "Time(s)": 110
    },
    {
        "Altitude(m)": 623673.9183511114,
        "Argument of Periapsis(deg)": 0.0012502735095955685,
        "Eccentricity": 0.0,
        "Inclination(deg)": 60.0,
        "Latitude(deg)": -56.02967206585561,
        "Longitude(deg)": 7.983330655232097,
        "Mean Anomaly(deg)": -107.10422625445803,
        "RAAN(deg)": 229.99495941032308,
        "Satellite Name": "Test1 1027",
        "Satellite Number": 1027,
        "Semi-Major Axis(m)": 6980739.136638005,
        "Time(s)": 120
    },
    {
        "Altitude(m)": 623775.4419951756,
        "Argument of Periapsis(deg)": 0.0013544629687285324,
        "Eccentricity": 0.0,
        "Inclination(deg)": 60.0,
        "Latitude(deg)": -56.305463245345294,
        "Longitude(deg)": 8.931765075710157,
        "Mean Anomaly(deg)": -106.48412010899628,
        "RAAN(deg)": 229.99453936118334,
        "Satellite Name": "Test1 1027",
        "Satellite Number": 1027,
        "Semi-Major Axis(m)": 6980739.136638005,
        "Time(s)": 130
    },
    {
        "Altitude(m)": 623873.5611225703,
        "Argument of Periapsis(deg)": 0.0014586524278614966,
        "Eccentricity": 0.0,
        "Inclination(deg)": 60.0,
        "Latitude(deg)": -56.57321869685211,
        "Longitude(deg)": 9.894332679639236,
        "Mean Anomaly(deg)": -105.86401396353445,
        "RAAN(deg)": 229.99411931204358,
        "Satellite Name": "Test1 1027",
        "Satellite Number": 1027,
        "Semi-Major Axis(m)": 6980739.136638005,
        "Time(s)": 140
    },
    {
        "Altitude(m)": 623968.2371794161,
        "Argument of Periapsis(deg)": 0.0015628418869944607,
        "Eccentricity": 0.0,
        "Inclination(deg)": 60.0,
        "Latitude(deg)": -56.83274379550548,
        "Longitude(deg)": 10.870946576303874,
        "Mean Anomaly(deg)": -105.24390781807263,
        "RAAN(deg)": 229.99369926290387,
        "Satellite Name": "Test1 1027",
        "Satellite Number": 1027,
        "Semi-Major Axis(m)": 6980739.136638005,
        "Time(s)": 150
    },
    {
        "Altitude(m)": 624059.4329543556,
        "Argument of Periapsis(deg)": 0.0016670313461274247,
        "Eccentricity": 0.0,
        "Inclination(deg)": 60.0,
        "Latitude(deg)": -57.08384387630143,
        "Longitude(deg)": 11.861489073824394,
        "Mean Anomaly(deg)": -104.62380167261077,
        "RAAN(deg)": 229.99327921376414,
        "Satellite Name": "Test1 1027",
        "Satellite Number": 1027,
        "Semi-Major Axis(m)": 6980739.136638005,
        "Time(s)": 160
    },
    {
        "Altitude(m)": 624147.1125943165,
        "Argument of Periapsis(deg)": 0.0017712208052603888,
        "Eccentricity": 0.0,
        "Inclination(deg)": 60.0,
        "Latitude(deg)": -57.32632472631943,
        "Longitude(deg)": 12.865809135648755,
        "Mean Anomaly(deg)": -104.00369552714892,
        "RAAN(deg)": 229.99285916462438,
        "Satellite Name": "Test1 1027",
        "Satellite Number": 1027,
        "Semi-Major Axis(m)": 6980739.136638005,
        "Time(s)": 170
    },
    {
        "Altitude(m)": 624231.2416196855,
        "Argument of Periapsis(deg)": 0.001875410264393353,
        "Eccentricity": 0.0,
        "Inclination(deg)": 60.0,
        "Latitude(deg)": -57.55999311014007,
        "Longitude(deg)": 13.883721440529692,
        "Mean Anomaly(deg)": -103.38358938168707,
        "RAAN(deg)": 229.99243911548461,
        "Satellite Name": "Test1 1027",
        "Satellite Number": 1027,
        "Semi-Major Axis(m)": 6980739.136638005,
        "Time(s)": 180
    },
    {
        "Altitude(m)": 624311.7869389098,
        "Argument of Periapsis(deg)": 0.0019795997235263173,
        "Eccentricity": 0.0,
        "Inclination(deg)": 60.0,
        "Latitude(deg)": -57.78465732720674,
        "Longitude(deg)": 14.915005556032474,
        "Mean Anomaly(deg)": -102.76348323622527,
        "RAAN(deg)": 229.9920190663449,
        "Satellite Name": "Test1 1027",
        "Satellite Number": 1027,
        "Semi-Major Axis(m)": 6980739.136638005,
        "Time(s)": 190
    }
]